{"type": "FeatureCollection", "features": [ {"type": "Feature", "properties": {"norad_id": 29919, "name": "FENGYUN 1C DEB", "group": "fengyun-1c-debris", "lat": 47.452767159909435, "lon": 131.09619578926095, "alt_km": 893.525333592931, "timestamp": "2025-12-11T22:43:47.541053+00:00", "meta": {"OBJECT_NAME": "FENGYUN 1C DEB", "OBJECT_ID": "1999-025HR", "EPOCH": "2025-12-11T10:40:27.753888", "MEAN_MOTION": 13.85122466, "ECCENTRICITY": 0.01374276, "INCLINATION": 98.479, "RA_OF_ASC_NODE": 139.995, "ARG_OF_PERICENTER": 347.3645, "MEAN_ANOMALY": 76.0926, "EPHEMERIS_TYPE": 0, "CLASSIFICATION_TYPE": "U", "NORAD_CAT_ID": 29919, "ELEMENT_SET_NO": 999, "REV_AT_EPOCH": 95517, "BSTAR": 0.00025578696, "MEAN_MOTION_DOT": 2.73e-06, "MEAN_MOTION_DDOT": 0}, "tle": {"line1": "1 29919U 99025HR  25345.44476567  .00000273  00000+0  25579-3 0  9999", "line2": "2 29919  98.4790 139.9950 0137427 347.3645  76.0926 13.85122466955176"}}, "geometry": {"type": "Point", "coordinates": [131.09619578926095, 47.452767159909435]}}, {"type": "Feature", "properties": {"norad_id": 29920, "name": "FENGYUN 1C DEB", "group": "fengyun-1c-debris", "lat": -48.18557907685132, "lon": 11.006366611626868, "alt_km": 834.0702902521334, "timestamp": "2025-12-11T22:43:47.541063+00:00", "meta": {"OBJECT_NAME": "FENGYUN 1C DEB", "OBJECT_ID": "1999-025HS", "EPOCH": "2025-12-11T13:04:37.493760", "MEAN_MOTION": 14.03650614, "ECCENTRICITY": 0.01254176, "INCLINATION": 98.3912, "RA_OF_ASC_NODE": 200.1323, "ARG_OF_PERICENTER": 284.2271, "MEAN_ANOMALY": 74.4994, "EPHEMERIS_TYPE": 0, "CLASSIFICATION_TYPE": "U", "NORAD_CAT_ID": 29920, "ELEMENT_SET_NO": 999, "REV_AT_EPOCH": 96271, "BSTAR": 0.0018726775, "MEAN_MOTION_DOT": 3.115e-05, "MEAN_MOTION_DDOT": 0}, "tle": {"line1": "1 29920U 99025HS  25345.54487840  .00003115  00000+0  18727-2 0  9992", "line2": "2 29920  98.3912 200.1323 0125417 284.2271  74.4994 14.03650614962715"}}, "geometry": {"type": "Point", "coordinates": [11.006366611626868, -48.18557907685132]}}, {"type": "Feature", "properties": {"norad_id": 29921, "name": "FENGYUN 1C DEB", "group": "fengyun-1c-debris", "lat": 55.465265812943386, "lon": -20.901946390188215, "alt_km": 833.0785895795498, "timestamp": "2025-12-11T22:43:47.541074+00:00", "meta": {"OBJECT_NAME": "FENGYUN 1C DEB", "OBJECT_ID": "1999-025HT", "EPOCH": "2025-12-11T11:15:27.647136", "MEAN_MOTION": 14.06641394, "ECCENTRICITY": 0.00464405, "INCLINATION": 98.7869, "RA_OF_ASC_NODE": 351.6224, "ARG_OF_PERICENTER": 73.2347, "MEAN_ANOMALY": 84.187, "EPHEMERIS_TYPE": 0, "CLASSIFICATION_TYPE": "U", "NORAD_CAT_ID": 29921, "ELEMENT_SET_NO": 999, "REV_AT_EPOCH": 96858, "BSTAR": 0.00061270758, "MEAN_MOTION_DOT": 9.84e-06, "MEAN_MOTION_DDOT": 0}, "tle": {"line1": "1 29921U 99025HT  25345.46906999  .00000984  00000+0  61271-3 0  9999", "line2": "2 29921  98.7869 351.6224 0046440  73.2347  84.1870 14.06641394968581"}}, "geometry": {"type": "Point", "coordinates": [-20.901946390188215, 55.465265812943386]}}, {"type": "Feature", "properties": {"norad_id": 29922, "name": "FENGYUN 1C DEB", "group": "fengyun-1c-debris", "lat": -45.17830006768234, "lon": -145.9191645305604, "alt_km": 959.6752429322514, "timestamp": "2025-12-11T22:43:47.541084+00:00", "meta": {"OBJECT_NAME": "FENGYUN 1C DEB", "OBJECT_ID": "1999-025HU", "EPOCH": "2025-12-11T14:46:59.899584", "MEAN_MOTION": 13.98580315, "ECCENTRICITY": 0.00933291, "INCLINATION": 99.136, "RA_OF_ASC_NODE": 43.0696, "ARG_OF_PERICENTER": 10.1392, "MEAN_ANOMALY": 350.1626, "EPHEMERIS_TYPE": 0, "CLASSIFICATION_TYPE": "U", "NORAD_CAT_ID": 29922, "ELEMENT_SET_NO": 999, "REV_AT_EPOCH": 96425, "BSTAR": 0.00016500479, "MEAN_MOTION_DOT": 2.01e-06, "MEAN_MOTION_DDOT": 0}, "tle": {"line1": "1 29922U 99025HU  25345.61597106  .00000201  00000+0  16500-3 0  9990", "line2": "2 29922  99.1360  43.0696 0093329  10.1392 350.1626 13.98580315964256"}}, "geometry": {"type": "Point", "coordinates": [-145.9191645305604, -45.17830006768234]}}, {"type": "Feature", "properties": {"norad_id": 29923, "name": "FENGYUN 1C DEB", "group": "fengyun-1c-debris", "lat": 23.641381092518934, "lon": -9.576613849104417, "alt_km": 856.198916445418, "timestamp": "2025-12-11T22:43:47.541094+00:00", "meta": {"OBJECT_NAME": "FENGYUN 1C DEB", "OBJECT_ID": "1999-025HV", "EPOCH": "2025-12-11T07:23:10.204800", "MEAN_MOTION": 14.13889077, "ECCENTRICITY": 0.00175681, "INCLINATION": 98.6883, "RA_OF_ASC_NODE": 353.6401, "ARG_OF_PERICENTER": 173.3076, "MEAN_ANOMALY": 198.5146, "EPHEMERIS_TYPE": 0, "CLASSIFICATION_TYPE": "U", "NORAD_CAT_ID": 29923, "ELEMENT_SET_NO": 999, "REV_AT_EPOCH": 97255, "BSTAR": 0.00071500529, "MEAN_MOTION_DOT": 1.315e-05, "MEAN_MOTION_DDOT": 0}, "tle": {"line1": "1 29923U 99025HV  25345.30775700  .00001315  00000+0  71501-3 0  9994", "line2": "2 29923  98.6883 353.6401 0017568 173.3076 198.5146 14.13889077972555"}}, "geometry": {"type": "Point", "coordinates": [-9.576613849104417, 23.641381092518934]}}, {"type": "Feature", "properties": {"norad_id": 29924, "name": "FENGYUN 1C DEB", "group": "fengyun-1c-debris", "lat": 12.621113387975676, "lon": -3.0434762417343095, "alt_km": 871.5219416851633, "timestamp": "2025-12-11T22:43:47.541104+00:00", "meta": {"OBJECT_NAME": "FENGYUN 1C DEB", "OBJECT_ID": "1999-025HW", "EPOCH": "2025-12-11T00:38:31.572384", "MEAN_MOTION": 14.08889479, "ECCENTRICITY": 0.0025882, "INCLINATION": 98.7345, "RA_OF_ASC_NODE": 358.0375, "ARG_OF_PERICENTER": 262.6601, "MEAN_ANOMALY": 124.6663, "EPHEMERIS_TYPE": 0, "CLASSIFICATION_TYPE": "U", "NORAD_CAT_ID": 29924, "ELEMENT_SET_NO": 999, "REV_AT_EPOCH": 97184, "BSTAR": 0.00010020214, "MEAN_MOTION_DOT": 1.31e-06, "MEAN_MOTION_DDOT": 0}, "tle": {"line1": "1 29924U 99025HW  25345.02675431  .00000131  00000+0  10020-3 0  9998", "line2": "2 29924  98.7345 358.0375 0025882 262.6601 124.6663 14.08889479971848"}}, "geometry": {"type": "Point", "coordinates": [-3.0434762417343095, 12.621113387975676]}}, {"type": "Feature", "properties": {"norad_id": 29926, "name": "FENGYUN 1C DEB", "group": "fengyun-1c-debris", "lat": 11.050206104555421, "lon": 156.51147748213384, "alt_km": 902.7647000987317, "timestamp": "2025-12-11T22:43:47.541115+00:00", "meta": {"OBJECT_NAME": "FENGYUN 1C DEB", "OBJECT_ID": "1999-025HY", "EPOCH": "2025-12-11T12:27:29.403648", "MEAN_MOTION": 14.33388649, "ECCENTRICITY": 0.02482974, "INCLINATION": 98.2835, "RA_OF_ASC_NODE": 334.4711, "ARG_OF_PERICENTER": 303.8985, "MEAN_ANOMALY": 179.6704, "EPHEMERIS_TYPE": 0, "CLASSIFICATION_TYPE": "U", "NORAD_CAT_ID": 29926, "ELEMENT_SET_NO": 999, "REV_AT_EPOCH": 98563, "BSTAR": 0.0006997217, "MEAN_MOTION_DOT": 2.672e-05, "MEAN_MOTION_DDOT": 0}, "tle": {"line1": "1 29926U 99025HY  25345.51909032  .00002672  00000+0  69972-3 0  9993", "line2": "2 29926  98.2835 334.4711 0248297 303.8985 179.6704 14.33388649985630"}}, "geometry": {"type": "Point", "coordinates": [156.51147748213384, 11.050206104555421]}}, {"type": "Feature", "properties": {"norad_id": 29927, "name": "FENGYUN 1C DEB", "group": "fengyun-1c-debris", "lat": -1.908598112275809, "lon": -170.5040309591971, "alt_km": 639.272861578128, "timestamp": "2025-12-11T22:43:47.541126+00:00", "meta": {"OBJECT_NAME": "FENGYUN 1C DEB", "OBJECT_ID": "1999-025HZ", "EPOCH": "2025-12-11T00:52:00.863904", "MEAN_MOTION": 14.74451739, "ECCENTRICITY": 0.001769, "INCLINATION": 99.085, "RA_OF_ASC_NODE": 8.781, "ARG_OF_PERICENTER": 215.5519, "MEAN_ANOMALY": 173.7226, "EPHEMERIS_TYPE": 0, "CLASSIFICATION_TYPE": "U", "NORAD_CAT_ID": 29927, "ELEMENT_SET_NO": 999, "REV_AT_EPOCH": 98622, "BSTAR": 0.004563983, "MEAN_MOTION_DOT": 0.00030458, "MEAN_MOTION_DDOT": 0}, "tle": {"line1": "1 29927U 99025HZ  25345.03612111  .00030458  00000+0  45640-2 0  9998", "line2": "2 29927  99.0850   8.7810 0017690 215.5519 173.7226 14.74451739986227"}}, "geometry": {"type": "Point", "coordinates": [-170.5040309591971, -1.908598112275809]}}, {"type": "Feature", "properties": {"norad_id": 29928, "name": "FENGYUN 1C DEB", "group": "fengyun-1c-debris", "lat": -0.8415958896585639, "lon": -169.94989784535701, "alt_km": 910.7474590002685, "timestamp": "2025-12-11T22:43:47.541136+00:00", "meta": {"OBJECT_NAME": "FENGYUN 1C DEB", "OBJECT_ID": "1999-025JA", "EPOCH": "2025-12-10T01:01:58.968768", "MEAN_MOTION": 13.88077825, "ECCENTRICITY": 0.01434645, "INCLINATION": 99.5849, "RA_OF_ASC_NODE": 8.2376, "ARG_OF_PERICENTER": 110.2315, "MEAN_ANOMALY": 279.3545, "EPHEMERIS_TYPE": 0, "CLASSIFICATION_TYPE": "U", "NORAD_CAT_ID": 29928, "ELEMENT_SET_NO": 999, "REV_AT_EPOCH": 95454, "BSTAR": 0.00082815704, "MEAN_MOTION_DOT": 1.026e-05, "MEAN_MOTION_DDOT": 0}, "tle": {"line1": "1 29928U 99025JA  25344.04304362  .00001026  00000+0  82816-3 0  9991", "line2": "2 29928  99.5849   8.2376 0143464 110.2315 279.3545 13.88077825954548"}}, "geometry": {"type": "Point", "coordinates": [-169.94989784535701, -0.8415958896585639]}}, {"type": "Feature", "properties": {"norad_id": 29929, "name": "FENGYUN 1C DEB", "group": "fengyun-1c-debris", "lat": 4.368357116681413, "lon": -95.42970730022218, "alt_km": 986.1639931127074, "timestamp": "2025-12-11T22:43:47.541146+00:00", "meta": {"OBJECT_NAME": "FENGYUN 1C DEB", "OBJECT_ID": "1999-025JB", "EPOCH": "2025-12-11T13:17:09.329280", "MEAN_MOTION": 14.01355195, "ECCENTRICITY": 0.01311187, "INCLINATION": 98.6238, "RA_OF_ASC_NODE": 264.8626, "ARG_OF_PERICENTER": 179.5875, "MEAN_ANOMALY": 1.0574, "EPHEMERIS_TYPE": 0, "CLASSIFICATION_TYPE": "U", "NORAD_CAT_ID": 29929, "ELEMENT_SET_NO": 999, "REV_AT_EPOCH": 95939, "BSTAR": 0.00145713, "MEAN_MOTION_DOT": 2.327e-05, "MEAN_MOTION_DDOT": 0}, "tle": {"line1": "1 29929U 99025JB  25345.55358020  .00002327  00000+0  14571-2 0  9996", "line2": "2 29929  98.6238 264.8626 0131118 179.5875   1.0574 14.01355195959396"}}, "geometry": {"type": "Point", "coordinates": [-95.42970730022218, 4.368357116681413]}}]}